      2.10          N: GNSS NAV DATA                        RINEX VERSION / TYPE
fic2rin                                 02/24/2020 00:19:57 PGM / RUN BY / DATE
                                                            END OF HEADER
 8 20  2 23  6  0  0.0-2.474151551723e-05-1.364242052659e-12 0.000000000000e+00
    4.000000000000e+01 1.117187500000e+02 4.176245385955e-09-3.520463584068e-01
    5.763024091721e-06 5.221787607297e-03 9.613111615181e-06 5.153632207870e+03
    2.160000000000e+04 7.636845111847e-08-2.648232809183e+00-7.823109626770e-08
    9.702000872422e-01 1.966250000000e+02-1.661705663797e-01-7.947473901331e-09
    3.157274370293e-10 1.000000000000e+00 2.094000000000e+03 0.000000000000e+00
    2.400000000000e+00 0.000000000000e+00 5.122274160385e-09 4.000000000000e+01
    1.440000000000e+04 4.000000000000e+00
 4 20  2 23  6  0  0.0-5.276594310999e-05-5.343281372916e-12 0.000000000000e+00
    2.090000000000e+02 1.284375000000e+01 4.292321649569e-09-1.458137403424e+00
    5.941838026047e-07 5.633819382638e-04 1.084245741367e-05 5.153721120834e+03
    2.160000000000e+04 1.303851604462e-08 5.403465582545e-01-2.980232238770e-08
    9.602302932174e-01 1.700625000000e+02-2.715193527692e+00-7.807110911792e-09
    4.410898017322e-10 1.000000000000e+00 2.094000000000e+03 0.000000000000e+00
    2.400000000000e+00 0.000000000000e+00-4.190951585770e-09 7.210000000000e+02
    1.440000000000e+04 4.000000000000e+00
10 20  2 23  6  0  0.0-2.546152099967e-04-1.296029950026e-11 0.000000000000e+00
    6.100000000000e+01-1.122187500000e+02 4.398397496625e-09 1.500901120430e+00
   -5.690380930901e-06 5.436841398478e-03 8.849427103996e-06 5.153672624588e+03
    2.160000000000e+04-1.862645149231e-08-5.407159904200e-01 1.341104507446e-07
    9.652018681663e-01 2.138437500000e+02-2.666719021768e+00-8.088551206339e-09
   -4.053740283126e-10 1.000000000000e+00 2.094000000000e+03 0.000000000000e+00
    2.400000000000e+00 0.000000000000e+00 1.862645149231e-09 6.100000000000e+01
    1.440000000000e+04 4.000000000000e+00
14 20  2 23  6  0  0.0-3.069452941418e-05 2.387423592154e-12 0.000000000000e+00
    3.600000000000e+01 2.746875000000e+01 4.527688596404e-09-8.110223936295e-01
    1.447275280952e-06 1.097493269481e-02 1.007877290249e-05 5.153617383957e+03
    2.160000000000e+04-7.450580596924e-08 5.882821778226e-01 2.160668373108e-07
    9.606941772258e-01 1.874687500000e+02-1.929611735891e+00-8.143553497405e-09
    4.514473760239e-10 1.000000000000e+00 2.094000000000e+03 0.000000000000e+00
    2.400000000000e+00 0.000000000000e+00-9.778887033463e-09 3.600000000000e+01
    1.440000000000e+04 4.000000000000e+00
13 20  2 23  6  0  0.0-1.082383096218e-05 2.728484105319e-12 0.000000000000e+00
    2.800000000000e+01 2.540625000000e+01 4.217675683122e-09-1.378427279246e+00
    1.264736056328e-06 4.166887607425e-03 9.853392839432e-06 5.153665430069e+03
    2.160000000000e+04 7.264316082001e-08 6.345770162684e-01 6.332993507385e-08
    9.680623616259e-01 1.939687500000e+02 1.152739257177e+00-7.838183634667e-09
    4.096599211229e-10 1.000000000000e+00 2.094000000000e+03 0.000000000000e+00
    2.400000000000e+00 0.000000000000e+00-1.117587089539e-08 2.800000000000e+01
    1.440000000000e+04 4.000000000000e+00
 9 20  2 23  6  0  0.0-1.617665402591e-04-8.412825991400e-12 0.000000000000e+00
    7.900000000000e+01 8.812500000000e+00 4.492687138453e-09-1.454716887369e-01
    3.837049007416e-07 1.725164940581e-03 1.088157296181e-05 5.153788404465e+03
    2.160000000000e+04-1.862645149231e-08 4.931868484918e-01 7.450580596924e-09
    9.529612112767e-01 1.649687500000e+02 1.784485268026e+00-7.934973380634e-09
    4.282321233011e-10 1.000000000000e+00 2.094000000000e+03 0.000000000000e+00
    2.400000000000e+00 0.000000000000e+00 1.396983861923e-09 7.900000000000e+01
    1.440000000000e+04 4.000000000000e+00
11 20  2 23  6  0  0.0-3.532911650836e-04 1.091393642128e-11 0.000000000000e+00
    4.800000000000e+01 1.107812500000e+02 5.883102197678e-09 3.108382858109e+00
    5.615875124931e-06 1.591425214428e-02 2.427026629448e-06 5.153714561462e+03
    2.160000000000e+04 2.011656761169e-07-2.047755800380e+00 1.732259988785e-07
    9.118194768955e-01 3.044375000000e+02 1.963146149968e+00-8.710719979308e-09
    3.560862609935e-10 1.000000000000e+00 2.094000000000e+03 0.000000000000e+00
    2.400000000000e+00 0.000000000000e+00-1.257285475731e-08 4.800000000000e+01
    1.440000000000e+04 4.000000000000e+00
29 20  2 23  6  0  0.0-3.989739343524e-05-9.322320693173e-12 0.000000000000e+00
    3.000000000000e+01 1.140312500000e+02 3.881590255243e-09-2.013287610082e-01
    5.716457962990e-06 1.124118105508e-03 8.527189493179e-06 5.153626091003e+03
    2.160000000000e+04 1.862645149231e-09-2.565336708365e+00 2.421438694000e-08
    9.859304284169e-01 2.285000000000e+02 1.890350601719e+00-7.773180927044e-09
    3.421571093598e-10 1.000000000000e+00 2.094000000000e+03 0.000000000000e+00
    2.400000000000e+00 0.000000000000e+00-1.024454832077e-08 3.000000000000e+01
    1.440000000000e+04 4.000000000000e+00
25 20  2 23  6  0  0.0-1.208530738950e-05 1.477928890381e-12 0.000000000000e+00
    3.400000000000e+01-2.565625000000e+01 4.184102856107e-09 1.906272452036e+00
   -1.367181539536e-06 9.131701313891e-03 1.015141606331e-05 5.153591861725e+03
    2.160000000000e+04-1.545995473862e-07 2.605211851199e+00-1.005828380585e-07
    9.669169728416e-01 1.871562500000e+02 8.994301714369e-01-7.825683113970e-09
   -4.453756945425e-10 1.000000000000e+00 2.094000000000e+03 0.000000000000e+00
    2.400000000000e+00 0.000000000000e+00 5.587935447693e-09 3.400000000000e+01
    1.440000000000e+04 4.000000000000e+00
28 20  2 23  6  0  0.0 7.374323904514e-04-2.501110429876e-12 0.000000000000e+00
    2.300000000000e+01-2.100000000000e+01 4.055168914062e-09 1.713106885092e-01
   -1.180917024612e-06 1.863301754929e-02 1.071952283382e-05 5.153667678833e+03
    2.160000000000e+04-2.868473529816e-07 2.695579746128e+00-1.955777406693e-07
    9.789115318003e-01 1.861562500000e+02-1.414174490044e+00-8.018905448170e-09
   -4.793056792911e-10 1.000000000000e+00 2.094000000000e+03 0.000000000000e+00
    3.400000000000e+00 0.000000000000e+00-1.117587089539e-08 2.300000000000e+01
    1.440000000000e+04 4.000000000000e+00
20 20  2 23  6  0  0.0 5.278736352921e-04 0.000000000000e+00 0.000000000000e+00
    1.800000000000e+01-1.147812500000e+02 5.136999690942e-09 3.056487553786e+00
   -5.871057510376e-06 5.050557432696e-03 7.158145308495e-06 5.153634109497e+03
    2.160000000000e+04-8.009374141693e-08-6.683770889543e-01 1.024454832077e-07
    9.332988271852e-01 2.274687500000e+02 2.603768278749e+00-8.366419923543e-09
   -3.550147877909e-10 1.000000000000e+00 2.094000000000e+03 0.000000000000e+00
    2.400000000000e+00 0.000000000000e+00-8.847564458847e-09 1.800000000000e+01
    1.440000000000e+04 4.000000000000e+00
22 20  2 23  6  0  0.0-7.849717512727e-04-4.547473508865e-13 0.000000000000e+00
    4.600000000000e+01-1.240000000000e+02 5.225574809023e-09-1.467168842294e+00
   -6.372109055519e-06 7.111347629689e-03 7.588416337967e-06 5.153570215225e+03
    2.160000000000e+04-1.695007085800e-07-6.205996839764e-01 9.313225746155e-08
    9.300385723425e-01 2.149687500000e+02-1.222145213997e+00-8.529998165805e-09
   -3.778728827795e-10 1.000000000000e+00 2.094000000000e+03 0.000000000000e+00
    2.400000000000e+00 0.000000000000e+00-1.816079020500e-08 4.600000000000e+01
    1.440000000000e+04 4.000000000000e+00
24 20  2 23  6  0  0.0-9.445939213037e-06-5.684341886081e-13 0.000000000000e+00
    5.500000000000e+01 1.053125000000e+01 5.393796101829e-09-2.498267915321e+00
    5.401670932770e-07 9.554717340507e-03 3.922730684280e-06 5.153654279709e+03
    2.160000000000e+04 4.842877388000e-08 1.497394273190e+00-1.117587089539e-07
    9.364956850100e-01 2.916875000000e+02 6.617265638875e-01-8.458566618966e-09
    1.775073938955e-10 1.000000000000e+00 2.094000000000e+03 0.000000000000e+00
    3.400000000000e+00 0.000000000000e+00 2.793967723846e-09 5.500000000000e+01
    1.440000000000e+04 4.000000000000e+00
27 20  2 23  6  0  0.0-2.191332168877e-04-1.091393642128e-11 0.000000000000e+00
    4.700000000000e+01 1.106562500000e+02 4.030167872669e-09-5.372853992478e-01
    5.818903446198e-06 7.917210576124e-03 9.214505553246e-06 5.153663312912e+03
    2.160000000000e+04 9.313225746155e-08-2.634710542430e+00 8.568167686462e-08
    9.785835631219e-01 2.120937500000e+02 5.080132920842e-01-7.929616014621e-09
    3.050127050035e-10 1.000000000000e+00 2.094000000000e+03 0.000000000000e+00
    2.400000000000e+00 0.000000000000e+00 1.396983861923e-09 4.700000000000e+01
    1.440000000000e+04 4.000000000000e+00
23 20  2 23  6  0  0.0-1.344350166619e-04 2.614797267597e-12 0.000000000000e+00
    3.800000000000e+01 9.843750000000e+00 4.596262881369e-09-2.010080312873e+00
    3.520399332047e-07 1.349579042289e-02 1.067481935024e-05 5.153665651321e+03
    2.160000000000e+04 1.750886440277e-07 4.854847179300e-01-1.005828380585e-07
    9.437855535537e-01 1.603437500000e+02-2.194857944963e+00-7.781038397196e-09
    5.403796518387e-10 1.000000000000e+00 2.094000000000e+03 0.000000000000e+00
    2.400000000000e+00 0.000000000000e+00-2.002343535423e-08 3.800000000000e+01
    1.440000000000e+04 4.000000000000e+00
26 20  2 23  6  0  0.0 1.539825461805e-04 7.730704965070e-12 0.000000000000e+00
    3.000000000000e+01-2.281250000000e+01 4.698409993349e-09 1.251430826820e+00
   -1.130625605583e-06 4.679544945247e-03 9.747222065926e-06 5.153572135925e+03
    2.160000000000e+04 2.235174179077e-08 2.571681451369e+00 4.842877388000e-08
    9.480168422153e-01 1.841875000000e+02 1.895652158321e-01-8.067478900021e-09
   -5.571660653459e-10 1.000000000000e+00 2.094000000000e+03 0.000000000000e+00
    2.400000000000e+00 0.000000000000e+00 7.450580596924e-09 3.000000000000e+01
    1.440000000000e+04 4.000000000000e+00
